[{"OBJECT_NAME":"CUBESX-HSE 3 (RS42S)","OBJECT_ID":"2023-091N","EPOCH":"2026-03-09T22:57:25.321248","MEAN_MOTION":15.286147,"ECCENTRICITY":0.00127191,"INCLINATION":97.5203,"RA_OF_ASC_NODE":133.4295,"ARG_OF_PERICENTER":86.5376,"MEAN_ANOMALY":273.7318,"EPHEMERIS_TYPE":0,"CLASSIFICATION_TYPE":"U","NORAD_CAT_ID":57178,"ELEMENT_SET_NO":999,"REV_AT_EPOCH":14925,"BSTAR":0.00059055694,"MEAN_MOTION_DOT":0.00016417,"MEAN_MOTION_DDOT":0},{"OBJECT_NAME":"STARLINK-35541","OBJECT_ID":"2025-245B","EPOCH":"2026-03-09T21:56:23.777376","MEAN_MOTION":15.30214296,"ECCENTRICITY":8.061e-5,"INCLINATION":53.1587,"RA_OF_ASC_NODE":282.6629,"ARG_OF_PERICENTER":82.3941,"MEAN_ANOMALY":277.7151,"EPHEMERIS_TYPE":0,"CLASSIFICATION_TYPE":"U","NORAD_CAT_ID":66235,"ELEMENT_SET_NO":999,"REV_AT_EPOCH":2124,"BSTAR":0.00097606581,"MEAN_MOTION_DOT":0.00028673,"MEAN_MOTION_DDOT":0}]
